[{"OBJECT_NAME":"ZACUBE-1 (TSHEPISOSAT)","OBJECT_ID":"2013-066B","EPOCH":"2026-03-09T22:19:27.469056","MEAN_MOTION":15.00329659,"ECCENTRICITY":0.00425262,"INCLINATION":97.8171,"RA_OF_ASC_NODE":30.7553,"ARG_OF_PERICENTER":219.1599,"MEAN_ANOMALY":140.6545,"EPHEMERIS_TYPE":0,"CLASSIFICATION_TYPE":"U","NORAD_CAT_ID":39417,"ELEMENT_SET_NO":999,"REV_AT_EPOCH":66584,"BSTAR":0.00042975473,"MEAN_MOTION_DOT":5.431e-5,"MEAN_MOTION_DDOT":0},{"OBJECT_NAME":"STARLINK-4092","OBJECT_ID":"2022-062J","EPOCH":"2026-03-09T06:52:27.614208","MEAN_MOTION":15.08831953,"ECCENTRICITY":0.00012857,"INCLINATION":53.2184,"RA_OF_ASC_NODE":35.9212,"ARG_OF_PERICENTER":87.3089,"MEAN_ANOMALY":272.805,"EPHEMERIS_TYPE":0,"CLASSIFICATION_TYPE":"U","NORAD_CAT_ID":52838,"ELEMENT_SET_NO":999,"REV_AT_EPOCH":20572,"BSTAR":-3.5215877e-5,"MEAN_MOTION_DOT":-8.48e-6,"MEAN_MOTION_DDOT":0}]
